{
  "type": "FeatureCollection",
  "features": [
    {
      "type": "Feature",
      "properties": {
        "name": "Bagong Silang Mangrove Protected Area",
        "barangay": "Bagong Silang",
        "statedHa": 2,
        "source": "official_survey"
      },
      "geometry": {
        "type": "Polygon",
        "coordinates": [
          [
            [
              120.67148151319293,
              13.77883754289594
            ],
            [
              120.67157242721372,
              13.778992006930473
            ],
            [
              120.67178332911858,
              13.779165677656936
            ],
            [
              120.67186517886353,
              13.77930198483569
            ],
            [
              120.67204808190257,
              13.779502496897381
            ],
            [
              120.67216627987142,
              13.779702396520843
            ],
            [
              120.67224777199192,
              13.779874842246636
            ],
            [
              120.67235636864758,
              13.780110792967886
            ],
            [
              120.67256601922479,
              13.780410948434932
            ],
            [
              120.67274811827315,
              13.780692772097852
            ],
            [
              120.67287735066412,
              13.78071206587263
            ],
            [
              120.67305351724809,
              13.780659519583235
            ],
            [
              120.6730927287505,
              13.780434002920256
            ],
            [
              120.67306803982845,
              13.780126562171775
            ],
            [
              120.67280158472921,
              13.779961402193685
            ],
            [
              120.67266454087607,
              13.7797974664781
            ],
            [
              120.67250057173881,
              13.779551956415242
            ],
            [
              120.67240103972182,
              13.779334162544798
            ],
            [
              120.67231084095908,
              13.7791074214756
            ],
            [
              120.67204483507844,
              13.778897087664962
            ],
            [
              120.67171457218129,
              13.778640967959031
            ],
            [
              120.67148151319293,
              13.77883754289594
            ]
          ]
        ]
      }
    },
    {
      "type": "Feature",
      "properties": {
        "name": "Sta. Ana Mangrove Protected Area",
        "barangay": "Sta. Ana",
        "statedHa": 1.29,
        "source": "official_survey"
      },
      "geometry": {
        "type": "Polygon",
        "coordinates": [
          [
            [
              120.671,
              13.803
            ],
            [
              120.6714,
              13.803
            ],
            [
              120.6718,
              13.8027
            ],
            [
              120.6719,
              13.8024
            ],
            [
              120.6719,
              13.8023
            ],
            [
              120.672,
              13.802
            ],
            [
              120.6721,
              13.8018
            ],
            [
              120.6721,
              13.8015
            ],
            [
              120.6717,
              13.8012
            ],
            [
              120.6715,
              13.8014
            ],
            [
              120.6714,
              13.8015
            ],
            [
              120.6713,
              13.802
            ],
            [
              120.6713,
              13.8022
            ],
            [
              120.6712,
              13.8025
            ],
            [
              120.671,
              13.8028
            ],
            [
              120.671,
              13.803
            ]
          ]
        ]
      }
    },
    {
      "type": "Feature",
      "properties": {
        "name": "Palobandera Mangrove Protected Area",
        "barangay": "Sta. Ana",
        "statedHa": 1.9,
        "source": "official_survey"
      },
      "geometry": {
        "type": "Polygon",
        "coordinates": [
          [
            [
              120.63112966710474,
              13.80635313357275
            ],
            [
              120.63129588381685,
              13.806372807663495
            ],
            [
              120.63142512295764,
              13.80639212493431
            ],
            [
              120.63151692826435,
              13.806456257289165
            ],
            [
              120.63161697433195,
              13.806619856859456
            ],
            [
              120.63163464195036,
              13.806701344534643
            ],
            [
              120.6317069549093,
              13.806864676572454
            ],
            [
              120.6318253988724,
              13.807037488816423
            ],
            [
              120.63195299620126,
              13.807219424564815
            ],
            [
              120.63198997396374,
              13.807219781218024
            ],
            [
              120.63186137397504,
              13.804390506955249
            ],
            [
              120.63163878027083,
              13.804460642239519
            ],
            [
              120.6310465957853,
              13.804509141599269
            ],
            [
              120.63125848537291,
              13.80458346762224
            ],
            [
              120.63136804872953,
              13.804720053224878
            ],
            [
              120.63140210633088,
              13.805009509737069
            ],
            [
              120.63133666591618,
              13.805081160487335
            ],
            [
              120.63107782408305,
              13.805078663488667
            ],
            [
              120.631018525073,
              13.805457571796474
            ],
            [
              120.6310722573301,
              13.805629759894197
            ],
            [
              120.63104288150035,
              13.805792110934446
            ],
            [
              120.63114402211113,
              13.805847298199295
            ],
            [
              120.63134739850884,
              13.80584926020193
            ],
            [
              120.63141165294329,
              13.805895056285916
            ],
            [
              120.6313355078049,
              13.806111167711952
            ],
            [
              120.63123381948947,
              13.806110186708494
            ],
            [
              120.63112966710474,
              13.80635313357275
            ]
          ]
        ]
      }
    },
    {
      "type": "Feature",
      "properties": {
        "name": "Encarnacion Mangrove Protected Area",
        "barangay": "Encarnacion",
        "statedHa": 6.26,
        "source": "official_survey"
      },
      "geometry": {
        "type": "Polygon",
        "coordinates": [
          [
            [
              120.67381970198626,
              13.856203431436116
            ],
            [
              120.6742928102966,
              13.856054325126491
            ],
            [
              120.67463889295222,
              13.855660053233557
            ],
            [
              120.67490004654671,
              13.85543664774981
            ],
            [
              120.67515015506724,
              13.85539384641199
            ],
            [
              120.67538796063872,
              13.855658134006402
            ],
            [
              120.67592399635326,
              13.855690331434738
            ],
            [
              120.67615453350093,
              13.855755768941867
            ],
            [
              120.67638560993286,
              13.855766998503086
            ],
            [
              120.67664523497648,
              13.85569717956321
            ],
            [
              120.67677594583014,
              13.855571923706751
            ],
            [
              120.67733128368508,
              13.855522981925706
            ],
            [
              120.6777056396751,
              13.855074760204714
            ],
            [
              120.67792585289914,
              13.855248523908191
            ],
            [
              120.67837839980557,
              13.855307030174616
            ],
            [
              120.67876864397017,
              13.855120986448988
            ],
            [
              120.67910026672416,
              13.85525062839028
            ],
            [
              120.67938457979844,
              13.855488247286884
            ],
            [
              120.67937416656254,
              13.855605609982554
            ],
            [
              120.67966817565332,
              13.855798143106371
            ],
            [
              120.6800314874031,
              13.855530522499153
            ],
            [
              120.6801415432283,
              13.854691264280035
            ],
            [
              120.68028975847848,
              13.854665562597962
            ],
            [
              120.68031049409049,
              13.854439871602706
            ],
            [
              120.68024729252303,
              13.854285669076367
            ],
            [
              120.68003372326544,
              13.8543739997995
            ],
            [
              120.67976682725178,
              13.8542449728305
            ],
            [
              120.67899747385815,
              13.854427423673261
            ],
            [
              120.67821187075842,
              13.854383830534678
            ],
            [
              120.6774985349637,
              13.854512594892173
            ],
            [
              120.67724618212976,
              13.854781264628743
            ],
            [
              120.67705675863942,
              13.855231240951111
            ],
            [
              120.67626073950363,
              13.855305003534644
            ],
            [
              120.67583710198126,
              13.855129306784342
            ],
            [
              120.67516353695498,
              13.854978341852936
            ],
            [
              120.67477499943098,
              13.854992721730103
            ],
            [
              120.67426499701396,
              13.85513244328449
            ],
            [
              120.67378192443513,
              13.855353738819456
            ],
            [
              120.67371521910275,
              13.855551884960244
            ],
            [
              120.67348288392124,
              13.855667137415185
            ],
            [
              120.6733975949717,
              13.855874142208773
            ],
            [
              120.67310062283853,
              13.855979744259058
            ],
            [
              120.67318688057547,
              13.856604011088908
            ],
            [
              120.67381970198626,
              13.856203431436116
            ]
          ]
        ]
      }
    },
    {
      "type": "Feature",
      "properties": {
        "name": "Calatagan Mangrove Forest Conservation Park \"Ang Pulo\"",
        "barangay": "Quilitisan",
        "statedHa": 7.5,
        "source": "approximate_circle"
      },
      "geometry": {
        "type": "Polygon",
        "coordinates": [
          [
            [
              120.61937476063629,
              13.885727649999998
            ],
            [
              120.61936252883585,
              13.88590881744787
            ],
            [
              120.61932604272401,
              13.886086885070482
            ],
            [
              120.61926592658827,
              13.886258806081436
            ],
            [
              120.61918320903236,
              13.886421638864574
            ],
            [
              120.61907930537662,
              13.886572597305829
            ],
            [
              120.6189559934414,
              13.886709098464419
            ],
            [
              120.6188153831281,
              13.88682880676767
            ],
            [
              120.61865988031815,
              13.88692967397333
            ],
            [
              120.61849214570776,
              13.887009974215543
            ],
            [
              120.61831504928261,
              13.8870683335349
            ],
            [
              120.61813162121165,
              13.887103753387267
            ],
            [
              120.617945,
              13.88711562772915
            ],
            [
              120.61775837878837,
              13.887103753387267
            ],
            [
              120.6175749507174,
              13.8870683335349
            ],
            [
              120.61739785429225,
              13.887009974215543
            ],
            [
              120.61723011968186,
              13.88692967397333
            ],
            [
              120.61707461687192,
              13.88682880676767
            ],
            [
              120.61693400655861,
              13.886709098464419
            ],
            [
              120.6168106946234,
              13.886572597305829
            ],
            [
              120.61670679096765,
              13.886421638864574
            ],
            [
              120.61662407341174,
              13.886258806081436
            ],
            [
              120.616563957276,
              13.886086885070482
            ],
            [
              120.61652747116416,
              13.88590881744787
            ],
            [
              120.61651523936372,
              13.885727649999998
            ],
            [
              120.61652747116416,
              13.885546482552126
            ],
            [
              120.616563957276,
              13.885368414929514
            ],
            [
              120.61662407341174,
              13.88519649391856
            ],
            [
              120.61670679096765,
              13.885033661135422
            ],
            [
              120.6168106946234,
              13.884882702694167
            ],
            [
              120.61693400655861,
              13.884746201535577
            ],
            [
              120.61707461687192,
              13.884626493232325
            ],
            [
              120.61723011968186,
              13.884525626026665
            ],
            [
              120.61739785429225,
              13.884445325784453
            ],
            [
              120.6175749507174,
              13.884386966465096
            ],
            [
              120.61775837878837,
              13.884351546612729
            ],
            [
              120.617945,
              13.884339672270846
            ],
            [
              120.61813162121165,
              13.884351546612729
            ],
            [
              120.61831504928261,
              13.884386966465096
            ],
            [
              120.61849214570776,
              13.884445325784453
            ],
            [
              120.61865988031815,
              13.884525626026665
            ],
            [
              120.6188153831281,
              13.884626493232325
            ],
            [
              120.6189559934414,
              13.884746201535577
            ],
            [
              120.61907930537662,
              13.884882702694167
            ],
            [
              120.61918320903236,
              13.885033661135422
            ],
            [
              120.61926592658827,
              13.88519649391856
            ],
            [
              120.61932604272401,
              13.885368414929514
            ],
            [
              120.61936252883585,
              13.885546482552126
            ],
            [
              120.61937476063629,
              13.885727649999998
            ]
          ]
        ]
      }
    },
    {
      "type": "Feature",
      "properties": {
        "name": "Calatagan Mangrove Rehabilitation and Nursery Project",
        "barangay": "Balibago",
        "statedHa": 20,
        "source": "approximate_circle"
      },
      "geometry": {
        "type": "Polygon",
        "coordinates": [
          [
            [
              120.62649392589913,
              13.925691428571424
            ],
            [
              120.62647394800301,
              13.92598727377495
            ],
            [
              120.62641435614199,
              13.926278056985021
            ],
            [
              120.62631616994935,
              13.92655880282029
            ],
            [
              120.62618106941804,
              13.926824707641682
            ],
            [
              120.62601136615564,
              13.927071221743974
            ],
            [
              120.62580996383198,
              13.927294127202535
            ],
            [
              120.62558030849671,
              13.927489610043166
            ],
            [
              120.62532632961624,
              13.927654325500264
            ],
            [
              120.62505237283965,
              13.927785455246692
            ],
            [
              120.62476312564336,
              13.927880755616131
            ],
            [
              120.62446353712706,
              13.927938595992842
            ],
            [
              120.62415873333335,
              13.927957986711938
            ],
            [
              120.62385392953964,
              13.927938595992842
            ],
            [
              120.62355434102334,
              13.927880755616131
            ],
            [
              120.62326509382704,
              13.927785455246692
            ],
            [
              120.62299113705045,
              13.927654325500264
            ],
            [
              120.62273715816998,
              13.927489610043166
            ],
            [
              120.62250750283471,
              13.927294127202535
            ],
            [
              120.62230610051105,
              13.927071221743974
            ],
            [
              120.62213639724865,
              13.926824707641682
            ],
            [
              120.62200129671734,
              13.92655880282029
            ],
            [
              120.6219031105247,
              13.926278056985021
            ],
            [
              120.62184351866368,
              13.92598727377495
            ],
            [
              120.62182354076756,
              13.925691428571424
            ],
            [
              120.62184351866368,
              13.925395583367898
            ],
            [
              120.6219031105247,
              13.925104800157827
            ],
            [
              120.62200129671734,
              13.924824054322558
            ],
            [
              120.62213639724865,
              13.924558149501166
            ],
            [
              120.62230610051105,
              13.924311635398874
            ],
            [
              120.62250750283471,
              13.924088729940314
            ],
            [
              120.62273715816998,
              13.923893247099683
            ],
            [
              120.62299113705045,
              13.923728531642585
            ],
            [
              120.62326509382704,
              13.923597401896156
            ],
            [
              120.62355434102334,
              13.923502101526717
            ],
            [
              120.62385392953964,
              13.923444261150006
            ],
            [
              120.62415873333335,
              13.92342487043091
            ],
            [
              120.62446353712706,
              13.923444261150006
            ],
            [
              120.62476312564336,
              13.923502101526717
            ],
            [
              120.62505237283965,
              13.923597401896156
            ],
            [
              120.62532632961624,
              13.923728531642585
            ],
            [
              120.62558030849671,
              13.923893247099683
            ],
            [
              120.62580996383198,
              13.924088729940314
            ],
            [
              120.62601136615564,
              13.924311635398874
            ],
            [
              120.62618106941804,
              13.924558149501166
            ],
            [
              120.62631616994935,
              13.924824054322558
            ],
            [
              120.62641435614199,
              13.925104800157827
            ],
            [
              120.62647394800301,
              13.925395583367898
            ],
            [
              120.62649392589913,
              13.925691428571424
            ]
          ]
        ]
      }
    }
  ]
}